{"type": "FeatureCollection", "features": [ {"type": "Feature", "properties": {"norad_id": 37834, "name": "INTELSAT 18 (IS-18)", "group": "intelsat", "lat": -0.04083440570034522, "lon": -124.36895399899, "alt_km": 35777.877600617096, "timestamp": "2025-12-06T22:38:42.402625+00:00", "meta": {"OBJECT_NAME": "INTELSAT 18 (IS-18)", "OBJECT_ID": "2011-056A", "EPOCH": "2025-12-06T14:34:38.434656", "MEAN_MOTION": 1.00271718, "ECCENTRICITY": 0.00021478, "INCLINATION": 0.0165, "RA_OF_ASC_NODE": 323.2539, "ARG_OF_PERICENTER": 298.0246, "MEAN_ANOMALY": 213.0255, "EPHEMERIS_TYPE": 0, "CLASSIFICATION_TYPE": "U", "NORAD_CAT_ID": 37834, "ELEMENT_SET_NO": 999, "REV_AT_EPOCH": 5188, "BSTAR": 0, "MEAN_MOTION_DOT": 6e-07, "MEAN_MOTION_DDOT": 0}, "tle": {"line1": "1 37834U 11056A   25340.60738929  .00000060  00000+0  00000+0 0  9990", "line2": "2 37834   0.0165 323.2539 0002147 298.0246 213.0255  1.00271718 51888"}}, "geometry": {"type": "Point", "coordinates": [-124.36895399899, -0.04083440570034522]}}, {"type": "Feature", "properties": {"norad_id": 38098, "name": "INTELSAT 22 (IS-22)", "group": "intelsat", "lat": 0.019377570499001268, "lon": 127.73569839027243, "alt_km": 35791.85764361306, "timestamp": "2025-12-06T22:38:42.402637+00:00", "meta": {"OBJECT_NAME": "INTELSAT 22 (IS-22)", "OBJECT_ID": "2012-011A", "EPOCH": "2025-12-06T12:17:49.942176", "MEAN_MOTION": 1.00271093, "ECCENTRICITY": 0.0001762, "INCLINATION": 0.0097, "RA_OF_ASC_NODE": 36.1141, "ARG_OF_PERICENTER": 230.1829, "MEAN_ANOMALY": 65.8196, "EPHEMERIS_TYPE": 0, "CLASSIFICATION_TYPE": "U", "NORAD_CAT_ID": 38098, "ELEMENT_SET_NO": 999, "REV_AT_EPOCH": 525, "BSTAR": 0, "MEAN_MOTION_DOT": -5.2e-07, "MEAN_MOTION_DDOT": 0}, "tle": {"line1": "1 38098U 12011A   25340.51238359 -.00000052  00000+0  00000+0 0  9999", "line2": "2 38098   0.0097  36.1141 0001762 230.1829  65.8196  1.00271093  5253"}}, "geometry": {"type": "Point", "coordinates": [127.73569839027243, 0.019377570499001268]}}, {"type": "Feature", "properties": {"norad_id": 38356, "name": "INTELSAT 19 (IS-19)", "group": "intelsat", "lat": -0.02616478902774304, "lon": -138.3825905616478, "alt_km": 35775.19382302621, "timestamp": "2025-12-06T22:38:42.402650+00:00", "meta": {"OBJECT_NAME": "INTELSAT 19 (IS-19)", "OBJECT_ID": "2012-030A", "EPOCH": "2025-12-06T12:36:51.616224", "MEAN_MOTION": 1.00270226, "ECCENTRICITY": 0.00035412, "INCLINATION": 0.0102, "RA_OF_ASC_NODE": 0.7713, "ARG_OF_PERICENTER": 261.9134, "MEAN_ANOMALY": 168.0982, "EPHEMERIS_TYPE": 0, "CLASSIFICATION_TYPE": "U", "NORAD_CAT_ID": 38356, "ELEMENT_SET_NO": 999, "REV_AT_EPOCH": 4851, "BSTAR": 0, "MEAN_MOTION_DOT": -5e-07, "MEAN_MOTION_DDOT": 0}, "tle": {"line1": "1 38356U 12030A   25340.52559741 -.00000050  00000+0  00000+0 0  9997", "line2": "2 38356   0.0102   0.7713 0003541 261.9134 168.0982  1.00270226 48519"}}, "geometry": {"type": "Point", "coordinates": [-138.3825905616478, -0.02616478902774304]}}, {"type": "Feature", "properties": {"norad_id": 38740, "name": "INTELSAT 20 (IS-20)", "group": "intelsat", "lat": 0.0029845686925156433, "lon": 124.12797831862844, "alt_km": 35780.539522987834, "timestamp": "2025-12-06T22:38:42.402662+00:00", "meta": {"OBJECT_NAME": "INTELSAT 20 (IS-20)", "OBJECT_ID": "2012-043A", "EPOCH": "2025-12-06T12:16:50.036736", "MEAN_MOTION": 1.00270942, "ECCENTRICITY": 0.00027623, "INCLINATION": 0.0079, "RA_OF_ASC_NODE": 76.3857, "ARG_OF_PERICENTER": 107.7543, "MEAN_ANOMALY": 144.1327, "EPHEMERIS_TYPE": 0, "CLASSIFICATION_TYPE": "U", "NORAD_CAT_ID": 38740, "ELEMENT_SET_NO": 999, "REV_AT_EPOCH": 4881, "BSTAR": 0, "MEAN_MOTION_DOT": -1.8e-07, "MEAN_MOTION_DDOT": 0}, "tle": {"line1": "1 38740U 12043A   25340.51169024 -.00000018  00000+0  00000+0 0  9992", "line2": "2 38740   0.0079  76.3857 0002762 107.7543 144.1327  1.00270942 48818"}}, "geometry": {"type": "Point", "coordinates": [124.12797831862844, 0.0029845686925156433]}}, {"type": "Feature", "properties": {"norad_id": 38749, "name": "INTELSAT 21 (IS-21)", "group": "intelsat", "lat": 0.01050950405679246, "lon": -2.3278446134940283, "alt_km": 35789.01568797598, "timestamp": "2025-12-06T22:38:42.402674+00:00", "meta": {"OBJECT_NAME": "INTELSAT 21 (IS-21)", "OBJECT_ID": "2012-045A", "EPOCH": "2025-12-06T11:40:38.504064", "MEAN_MOTION": 1.00271258, "ECCENTRICITY": 0.0002263, "INCLINATION": 0.0166, "RA_OF_ASC_NODE": 347.1755, "ARG_OF_PERICENTER": 263.8521, "MEAN_ANOMALY": 301.664, "EPHEMERIS_TYPE": 0, "CLASSIFICATION_TYPE": "U", "NORAD_CAT_ID": 38749, "ELEMENT_SET_NO": 999, "REV_AT_EPOCH": 4859, "BSTAR": 0, "MEAN_MOTION_DOT": -2.78e-06, "MEAN_MOTION_DDOT": 0}, "tle": {"line1": "1 38749U 12045A   25340.48655676 -.00000278  00000+0  00000+0 0  9990", "line2": "2 38749   0.0166 347.1755 0002263 263.8521 301.6640  1.00271258 48590"}}, "geometry": {"type": "Point", "coordinates": [-2.3278446134940283, 0.01050950405679246]}}, {"type": "Feature", "properties": {"norad_id": 38867, "name": "INTELSAT 23 (IS-23)", "group": "intelsat", "lat": -0.026906096582631614, "lon": 2.626119250262274, "alt_km": 35792.346852211485, "timestamp": "2025-12-06T22:38:42.402686+00:00", "meta": {"OBJECT_NAME": "INTELSAT 23 (IS-23)", "OBJECT_ID": "2012-057A", "EPOCH": "2025-12-06T11:42:00.871776", "MEAN_MOTION": 1.00267666, "ECCENTRICITY": 0.00016876, "INCLINATION": 0.0474, "RA_OF_ASC_NODE": 98.6565, "ARG_OF_PERICENTER": 128.5865, "MEAN_ANOMALY": 330.7637, "EPHEMERIS_TYPE": 0, "CLASSIFICATION_TYPE": "U", "NORAD_CAT_ID": 38867, "ELEMENT_SET_NO": 999, "REV_AT_EPOCH": 4802, "BSTAR": 0, "MEAN_MOTION_DOT": -2.78e-06, "MEAN_MOTION_DDOT": 0}, "tle": {"line1": "1 38867U 12057A   25340.48751009 -.00000278  00000+0  00000+0 0  9991", "line2": "2 38867   0.0474  98.6565 0001687 128.5865 330.7637  1.00267666 48022"}}, "geometry": {"type": "Point", "coordinates": [2.626119250262274, -0.026906096582631614]}}, {"type": "Feature", "properties": {"norad_id": 39360, "name": "FM-6", "group": "intelsat", "lat": 0.0008405429490805988, "lon": -60.474851384381296, "alt_km": 35793.04602932271, "timestamp": "2025-12-06T22:38:42.402698+00:00", "meta": {"OBJECT_NAME": "FM-6", "OBJECT_ID": "2013-058A", "EPOCH": "2025-12-06T10:46:18.103296", "MEAN_MOTION": 1.0027208, "ECCENTRICITY": 0.00028436, "INCLINATION": 0.0119, "RA_OF_ASC_NODE": 101.1481, "ARG_OF_PERICENTER": 71.9621, "MEAN_ANOMALY": 307.8093, "EPHEMERIS_TYPE": 0, "CLASSIFICATION_TYPE": "U", "NORAD_CAT_ID": 39360, "ELEMENT_SET_NO": 999, "REV_AT_EPOCH": 4414, "BSTAR": 0, "MEAN_MOTION_DOT": -1e-07, "MEAN_MOTION_DDOT": 0}, "tle": {"line1": "1 39360U 13058A   25340.44882064 -.00000010  00000+0  00000+0 0  9998", "line2": "2 39360   0.0119 101.1481 0002843  71.9621 307.8093  1.00272080 44146"}}, "geometry": {"type": "Point", "coordinates": [-60.474851384381296, 0.0008405429490805988]}}, {"type": "Feature", "properties": {"norad_id": 40271, "name": "INTELSAT 30 (IS-30)", "group": "intelsat", "lat": -0.0201903343566496, "lon": -39.44855030532392, "alt_km": 35794.6033853504, "timestamp": "2025-12-06T22:38:42.402710+00:00", "meta": {"OBJECT_NAME": "INTELSAT 30 (IS-30)", "OBJECT_ID": "2014-062A", "EPOCH": "2025-12-06T10:59:06.444672", "MEAN_MOTION": 1.00259344, "ECCENTRICITY": 0.00016239, "INCLINATION": 0.013, "RA_OF_ASC_NODE": 13.427, "ARG_OF_PERICENTER": 84.1507, "MEAN_ANOMALY": 47.6396, "EPHEMERIS_TYPE": 0, "CLASSIFICATION_TYPE": "U", "NORAD_CAT_ID": 40271, "ELEMENT_SET_NO": 999, "REV_AT_EPOCH": 485, "BSTAR": 0, "MEAN_MOTION_DOT": -1.42e-06, "MEAN_MOTION_DDOT": 0}, "tle": {"line1": "1 40271U 14062A   25340.45771348 -.00000142  00000+0  00000+0 0  9996", "line2": "2 40271   0.0130  13.4270 0001623  84.1507  47.6396  1.00259344  4854"}}, "geometry": {"type": "Point", "coordinates": [-39.44855030532392, -0.0201903343566496]}}, {"type": "Feature", "properties": {"norad_id": 40333, "name": "DIRECTV 14", "group": "intelsat", "lat": -0.014387576362540844, "lon": -43.57409491904597, "alt_km": 35786.71257133222, "timestamp": "2025-12-06T22:38:42.402722+00:00", "meta": {"OBJECT_NAME": "DIRECTV 14", "OBJECT_ID": "2014-078B", "EPOCH": "2025-12-06T10:56:19.521600", "MEAN_MOTION": 1.00270117, "ECCENTRICITY": 3.629e-05, "INCLINATION": 0.0171, "RA_OF_ASC_NODE": 336.5388, "ARG_OF_PERICENTER": 244.038, "MEAN_ANOMALY": 279.7819, "EPHEMERIS_TYPE": 0, "CLASSIFICATION_TYPE": "U", "NORAD_CAT_ID": 40333, "ELEMENT_SET_NO": 999, "REV_AT_EPOCH": 4011, "BSTAR": 0, "MEAN_MOTION_DOT": -1.18e-06, "MEAN_MOTION_DDOT": 0}, "tle": {"line1": "1 40333U 14078B   25340.45578150 -.00000118  00000+0  00000+0 0  9991", "line2": "2 40333   0.0171 336.5388 0000362 244.0380 279.7819  1.00270117 40110"}}, "geometry": {"type": "Point", "coordinates": [-43.57409491904597, -0.014387576362540844]}}, {"type": "Feature", "properties": {"norad_id": 40663, "name": "DIRECTV 15", "group": "intelsat", "lat": -0.034017941561629114, "lon": -47.21144521738867, "alt_km": 35784.9347503098, "timestamp": "2025-12-06T22:38:42.402735+00:00", "meta": {"OBJECT_NAME": "DIRECTV 15", "OBJECT_ID": "2015-026A", "EPOCH": "2025-12-06T10:54:16.360128", "MEAN_MOTION": 1.00272182, "ECCENTRICITY": 4.536e-05, "INCLINATION": 0.0393, "RA_OF_ASC_NODE": 80.8757, "ARG_OF_PERICENTER": 174.9502, "MEAN_ANOMALY": 240.3768, "EPHEMERIS_TYPE": 0, "CLASSIFICATION_TYPE": "U", "NORAD_CAT_ID": 40663, "ELEMENT_SET_NO": 999, "REV_AT_EPOCH": 3853, "BSTAR": 0, "MEAN_MOTION_DOT": -9.6e-07, "MEAN_MOTION_DDOT": 0}, "tle": {"line1": "1 40663U 15026A   25340.45435602 -.00000096  00000+0  00000+0 0  9990", "line2": "2 40663   0.0393  80.8757 0000453 174.9502 240.3768  1.00272182 38533"}}, "geometry": {"type": "Point", "coordinates": [-47.21144521738867, -0.034017941561629114]}}]}